ONEWEB-0144             
1 47290U 20100AJ  25019.60446746 -.00000388  00000+0 -11136-2 0  9993
2 47290  87.8861  92.9061 0002169 103.8881 256.2489 13.12442607197201
ONEWEB-0145             
1 47291U 20100AK  25019.72774707  .00000415  00000+0  11181-2 0  9997
2 47291  87.8861  92.9071 0001947 105.4399 254.6945 13.12443031197412
ONEWEB-0146             
1 47292U 20100AL  25019.57203621  .00000303  00000+0  80622-3 0  9996
2 47292  87.8861  92.9234 0001387 105.7221 254.4061 13.12440659197307
ONEWEB-0147             
1 47293U 20100AM  25019.69042857 -.00000588  00000+0 -16703-2 0  9997
2 47293  87.8859  92.8849 0002004 112.3774 247.7567 13.12442058197211
ONEWEB-0115             
1 48042U 21025A   25019.58605923 -.00000089  00000+0 -27950-3 0  9997
2 48042  87.8886  62.3529 0001753  97.3223 262.8105 13.13468975186178
ONEWEB-0152             
1 48043U 21025B   25019.67492984 -.00000333  00000+0 -94768-3 0  9992
2 48043  87.8890  62.3411 0001771 100.5081 259.6247 13.13468182186152
ONEWEB-0153             
1 48044U 21025C   25019.57652878  .00000151  00000+0  37821-3 0  9995
2 48044  87.8892  62.3546 0001856  96.9494 263.1846 13.13468355186128
ONEWEB-0154             
1 48045U 21025D   25019.57336668  .00000239  00000+0  62026-3 0  9994
2 48045  87.8888  62.3599 0001792  99.3383 260.7949 13.13468281186085
